{
  "type": "FeatureCollection",
  "features": [
    {
      "type": "Feature",
      "properties": {
        "norad_id": 57400,
        "name": "TIANMU-1 08",
        "group": "weather",
        "lat": -19.14011846162378,
        "lon": 46.18297925096463,
        "alt_km": 485.86317514375787,
        "timestamp": "2025-12-20T03:42:47.035824+00:00",
        "meta_object_name": "TIANMU-1 08",
        "meta_object_id": "2023-101B",
        "meta_epoch": "2025-12-19T19:56:22.588800",
        "meta_mean_motion": 15.28149265,
        "meta_eccentricity": 0.0007288,
        "meta_inclination": 97.2857,
        "meta_ra_of_asc_node": 43.3213,
        "meta_arg_of_pericenter": 64.135,
        "meta_mean_anomaly": 296.064,
        "meta_ephemeris_type": 0,
        "meta_classification_type": "U",
        "meta_norad_cat_id": 57400,
        "meta_element_set_no": 999,
        "meta_rev_at_epoch": 13423,
        "meta_bstar": 0.00019424,
        "meta_mean_motion_dot": 5.26e-05,
        "meta_mean_motion_ddot": 0,
        "tle_line1": "1 57400U 23101B   25353.83081700  .00005260  00000+0  19424-3 0  9993",
        "tle_line2": "2 57400  97.2857  43.3213 0007288  64.1350 296.0640 15.28149265134239"
      },
      "geometry": {
        "type": "Point",
        "coordinates": [
          46.18297925096463,
          -19.14011846162378
        ]
      }
    },
    {
      "type": "Feature",
      "properties": {
        "norad_id": 57401,
        "name": "TIANMU-1 09",
        "group": "weather",
        "lat": 53.66294602473689,
        "lon": 33.137364490962135,
        "alt_km": 471.7998972004543,
        "timestamp": "2025-12-20T03:42:47.035834+00:00",
        "meta_object_name": "TIANMU-1 09",
        "meta_object_id": "2023-101C",
        "meta_epoch": "2025-12-19T19:37:08.357376",
        "meta_mean_motion": 15.28181903,
        "meta_eccentricity": 0.0006547,
        "meta_inclination": 97.2813,
        "meta_ra_of_asc_node": 42.8181,
        "meta_arg_of_pericenter": 64.7088,
        "meta_mean_anomaly": 295.483,
        "meta_ephemeris_type": 0,
        "meta_classification_type": "U",
        "meta_norad_cat_id": 57401,
        "meta_element_set_no": 999,
        "meta_rev_at_epoch": 13423,
        "meta_bstar": 0.00020127,
        "meta_mean_motion_dot": 5.458e-05,
        "meta_mean_motion_ddot": 0,
        "tle_line1": "1 57401U 23101C   25353.81745784  .00005458  00000+0  20127-3 0  9992",
        "tle_line2": "2 57401  97.2813  42.8181 0006547  64.7088 295.4830 15.28181903134230"
      },
      "geometry": {
        "type": "Point",
        "coordinates": [
          33.137364490962135,
          53.66294602473689
        ]
      }
    },
    {
      "type": "Feature",
      "properties": {
        "norad_id": 57402,
        "name": "TIANMU-1 10",
        "group": "weather",
        "lat": -45.71709272373208,
        "lon": -143.5366570929028,
        "alt_km": 493.5397733926666,
        "timestamp": "2025-12-20T03:42:47.035847+00:00",
        "meta_object_name": "TIANMU-1 10",
        "meta_object_id": "2023-101D",
        "meta_epoch": "2025-12-19T20:26:27.611808",
        "meta_mean_motion": 15.28173767,
        "meta_eccentricity": 0.0008263,
        "meta_inclination": 97.2895,
        "meta_ra_of_asc_node": 43.7088,
        "meta_arg_of_pericenter": 62.877,
        "meta_mean_anomaly": 297.3312,
        "meta_ephemeris_type": 0,
        "meta_classification_type": "U",
        "meta_norad_cat_id": 57402,
        "meta_element_set_no": 999,
        "meta_rev_at_epoch": 13423,
        "meta_bstar": 0.00019138,
        "meta_mean_motion_dot": 5.186e-05,
        "meta_mean_motion_ddot": 0,
        "tle_line1": "1 57402U 23101D   25353.85170847  .00005186  00000+0  19138-3 0  9997",
        "tle_line2": "2 57402  97.2895  43.7088 0008263  62.8770 297.3312 15.28173767134236"
      },
      "geometry": {
        "type": "Point",
        "coordinates": [
          -143.5366570929028,
          -45.71709272373208
        ]
      }
    },
    {
      "type": "Feature",
      "properties": {
        "norad_id": 57490,
        "name": "FENGYUN 3F",
        "group": "weather",
        "lat": 57.446762559606086,
        "lon": -103.78142566191474,
        "alt_km": 819.6185738016184,
        "timestamp": "2025-12-20T03:42:47.035857+00:00",
        "meta_object_name": "FENGYUN 3F",
        "meta_object_id": "2023-111A",
        "meta_epoch": "2025-12-19T20:22:41.927232",
        "meta_mean_motion": 14.19895287,
        "meta_eccentricity": 7.43e-05,
        "meta_inclination": 98.7075,
        "meta_ra_of_asc_node": 62.0275,
        "meta_arg_of_pericenter": 113.1533,
        "meta_mean_anomaly": 246.9722,
        "meta_ephemeris_type": 0,
        "meta_classification_type": "U",
        "meta_norad_cat_id": 57490,
        "meta_element_set_no": 999,
        "meta_rev_at_epoch": 12341,
        "meta_bstar": 4.6118e-05,
        "meta_mean_motion_dot": 5.4e-07,
        "meta_mean_motion_ddot": 0,
        "tle_line1": "1 57490U 23111A   25353.84909638  .00000054  00000+0  46118-4 0  9990",
        "tle_line2": "2 57490  98.7075  62.0275 0000743 113.1533 246.9722 14.19895287123413"
      },
      "geometry": {
        "type": "Point",
        "coordinates": [
          -103.78142566191474,
          57.446762559606086
        ]
      }
    },
    {
      "type": "Feature",
      "properties": {
        "norad_id": 58584,
        "name": "ARKTIKA-M 2",
        "group": "weather",
        "lat": 54.37523437972924,
        "lon": -50.75946862405025,
        "alt_km": 30128.49446949935,
        "timestamp": "2025-12-20T03:42:47.035869+00:00",
        "meta_object_name": "ARKTIKA-M 2",
        "meta_object_id": "2023-198A",
        "meta_epoch": "2025-12-18T19:26:38.867712",
        "meta_mean_motion": 2.00602974,
        "meta_eccentricity": 0.68653183,
        "meta_inclination": 63.225,
        "meta_ra_of_asc_node": 174.2298,
        "meta_arg_of_pericenter": 268.0801,
        "meta_mean_anomaly": 18.8403,
        "meta_ephemeris_type": 0,
        "meta_classification_type": "U",
        "meta_norad_cat_id": 58584,
        "meta_element_set_no": 999,
        "meta_rev_at_epoch": 1470,
        "meta_bstar": 0,
        "meta_mean_motion_dot": 2e-06,
        "meta_mean_motion_ddot": 0,
        "tle_line1": "1 58584U 23198A   25352.81017208  .00000200  00000+0  00000+0 0  9997",
        "tle_line2": "2 58584  63.2250 174.2298 6865318 268.0801  18.8403  2.00602974 14701"
      },
      "geometry": {
        "type": "Point",
        "coordinates": [
          -50.75946862405025,
          54.37523437972924
        ]
      }
    },
    {
      "type": "Feature",
      "properties": {
        "norad_id": 58645,
        "name": "TIANMU-1 11",
        "group": "weather",
        "lat": -47.18884409951108,
        "lon": 21.668151814998744,
        "alt_km": 494.2447827779488,
        "timestamp": "2025-12-20T03:42:47.035881+00:00",
        "meta_object_name": "TIANMU-1 11",
        "meta_object_id": "2023-205A",
        "meta_epoch": "2025-12-19T20:02:46.402656",
        "meta_mean_motion": 15.24680484,
        "meta_eccentricity": 0.0007567,
        "meta_inclination": 97.3596,
        "meta_ra_of_asc_node": 13.334,
        "meta_arg_of_pericenter": 280.4268,
        "meta_mean_anomaly": 79.6117,
        "meta_ephemeris_type": 0,
        "meta_classification_type": "U",
        "meta_norad_cat_id": 58645,
        "meta_element_set_no": 999,
        "meta_rev_at_epoch": 11017,
        "meta_bstar": 0.00017822,
        "meta_mean_motion_dot": 4.336e-05,
        "meta_mean_motion_ddot": 0,
        "tle_line1": "1 58645U 23205A   25353.83525929  .00004336  00000+0  17822-3 0  9999",
        "tle_line2": "2 58645  97.3596  13.3340 0007567 280.4268  79.6117 15.24680484110171"
      },
      "geometry": {
        "type": "Point",
        "coordinates": [
          21.668151814998744,
          -47.18884409951108
        ]
      }
    },
    {
      "type": "Feature",
      "properties": {
        "norad_id": 58646,
        "name": "TIANMU-1 12",
        "group": "weather",
        "lat": 18.342887384315752,
        "lon": -164.09353562322448,
        "alt_km": 492.9451129593017,
        "timestamp": "2025-12-20T03:42:47.035891+00:00",
        "meta_object_name": "TIANMU-1 12",
        "meta_object_id": "2023-205B",
        "meta_epoch": "2025-12-19T20:42:21.426336",
        "meta_mean_motion": 15.24565525,
        "meta_eccentricity": 0.0005789,
        "meta_inclination": 97.3583,
        "meta_ra_of_asc_node": 13.1641,
        "meta_arg_of_pericenter": 258.7404,
        "meta_mean_anomaly": 101.3183,
        "meta_ephemeris_type": 0,
        "meta_classification_type": "U",
        "meta_norad_cat_id": 58646,
        "meta_element_set_no": 999,
        "meta_rev_at_epoch": 11016,
        "meta_bstar": 0.00018776,
        "meta_mean_motion_dot": 4.555e-05,
        "meta_mean_motion_ddot": 0,
        "tle_line1": "1 58646U 23205B   25353.86274799  .00004555  00000+0  18776-3 0  9991",
        "tle_line2": "2 58646  97.3583  13.1641 0005789 258.7404 101.3183 15.24565525110167"
      },
      "geometry": {
        "type": "Point",
        "coordinates": [
          -164.09353562322448,
          18.342887384315752
        ]
      }
    }
  ]
}